{"type": "FeatureCollection", "features": [ {"type": "Feature", "properties": {"norad_id": 66579, "name": "STARLINK-35868", "group": "last-30-days", "lat": -37.48028984491703, "lon": 77.61309180560542, "alt_km": 417.2352635570878, "timestamp": "2025-12-10T16:57:10.416304+00:00", "meta": {"OBJECT_NAME": "STARLINK-35868", "OBJECT_ID": "2025-268Y", "EPOCH": "2025-12-10T12:00:02.998944", "MEAN_MOTION": 15.50576862, "ECCENTRICITY": 0.0001707, "INCLINATION": 43.0002, "RA_OF_ASC_NODE": 134.1918, "ARG_OF_PERICENTER": 262.6482, "MEAN_ANOMALY": 321.0298, "EPHEMERIS_TYPE": 0, "CLASSIFICATION_TYPE": "U", "NORAD_CAT_ID": 66579, "ELEMENT_SET_NO": 999, "REV_AT_EPOCH": 430, "BSTAR": -0.00066097, "MEAN_MOTION_DOT": -0.00038923, "MEAN_MOTION_DDOT": 0}, "tle": {"line1": "1 66579U 25268Y   25344.50003471 -.00038923  00000+0 -66097-3 0  9991", "line2": "2 66579  43.0002 134.1918 0001707 262.6482 321.0298 15.50576862  4303"}}, "geometry": {"type": "Point", "coordinates": [77.61309180560542, -37.48028984491703]}}, {"type": "Feature", "properties": {"norad_id": 66580, "name": "STARLINK-35872", "group": "last-30-days", "lat": -36.71838356970581, "lon": 79.8098729319942, "alt_km": 417.2724023842893, "timestamp": "2025-12-10T16:57:10.416313+00:00", "meta": {"OBJECT_NAME": "STARLINK-35872", "OBJECT_ID": "2025-268Z", "EPOCH": "2025-12-10T12:00:02.998944", "MEAN_MOTION": 15.50590119, "ECCENTRICITY": 0.0001582, "INCLINATION": 43.0002, "RA_OF_ASC_NODE": 134.1874, "ARG_OF_PERICENTER": 262.7067, "MEAN_ANOMALY": 322.8813, "EPHEMERIS_TYPE": 0, "CLASSIFICATION_TYPE": "U", "NORAD_CAT_ID": 66580, "ELEMENT_SET_NO": 999, "REV_AT_EPOCH": 430, "BSTAR": -0.0010121, "MEAN_MOTION_DOT": -0.00059291, "MEAN_MOTION_DDOT": 0}, "tle": {"line1": "1 66580U 25268Z   25344.50003471 -.00059291  00000+0 -10121-2 0  9990", "line2": "2 66580  43.0002 134.1874 0001582 262.7067 322.8813 15.50590119  4300"}}, "geometry": {"type": "Point", "coordinates": [79.8098729319942, -36.71838356970581]}}, {"type": "Feature", "properties": {"norad_id": 66581, "name": "STARLINK-35744", "group": "last-30-days", "lat": -35.89479045791285, "lon": 82.01802500986777, "alt_km": 417.3752279204664, "timestamp": "2025-12-10T16:57:10.416323+00:00", "meta": {"OBJECT_NAME": "STARLINK-35744", "OBJECT_ID": "2025-268AA", "EPOCH": "2025-12-10T12:00:02.998944", "MEAN_MOTION": 15.50589412, "ECCENTRICITY": 0.0001468, "INCLINATION": 43.0002, "RA_OF_ASC_NODE": 134.1816, "ARG_OF_PERICENTER": 260.9762, "MEAN_ANOMALY": 326.5854, "EPHEMERIS_TYPE": 0, "CLASSIFICATION_TYPE": "U", "NORAD_CAT_ID": 66581, "ELEMENT_SET_NO": 999, "REV_AT_EPOCH": 426, "BSTAR": -0.0016342, "MEAN_MOTION_DOT": -0.00095092, "MEAN_MOTION_DDOT": 0}, "tle": {"line1": "1 66581U 25268AA  25344.50003471 -.00095092  00000+0 -16342-2 0  9991", "line2": "2 66581  43.0002 134.1816 0001468 260.9762 326.5854 15.50589412  4267"}}, "geometry": {"type": "Point", "coordinates": [82.01802500986777, -35.89479045791285]}}, {"type": "Feature", "properties": {"norad_id": 66582, "name": "STARLINK-35746", "group": "last-30-days", "lat": -35.075610173286385, "lon": 84.0725014632791, "alt_km": 417.10545931773413, "timestamp": "2025-12-10T16:57:10.416333+00:00", "meta": {"OBJECT_NAME": "STARLINK-35746", "OBJECT_ID": "2025-268AB", "EPOCH": "2025-12-10T12:00:02.998944", "MEAN_MOTION": 15.50597448, "ECCENTRICITY": 0.0001728, "INCLINATION": 43.0001, "RA_OF_ASC_NODE": 134.1766, "ARG_OF_PERICENTER": 265.759, "MEAN_ANOMALY": 323.6605, "EPHEMERIS_TYPE": 0, "CLASSIFICATION_TYPE": "U", "NORAD_CAT_ID": 66582, "ELEMENT_SET_NO": 999, "REV_AT_EPOCH": 430, "BSTAR": -0.0012026, "MEAN_MOTION_DOT": -0.00070309, "MEAN_MOTION_DDOT": 0}, "tle": {"line1": "1 66582U 25268AB  25344.50003471 -.00070309  00000+0 -12026-2 0  9991", "line2": "2 66582  43.0001 134.1766 0001728 265.7590 323.6605 15.50597448  4307"}}, "geometry": {"type": "Point", "coordinates": [84.0725014632791, -35.075610173286385]}}, {"type": "Feature", "properties": {"norad_id": 66583, "name": "STARLINK-35941", "group": "last-30-days", "lat": -34.197928791846586, "lon": 86.14234128741009, "alt_km": 417.10097536049034, "timestamp": "2025-12-10T16:57:10.416343+00:00", "meta": {"OBJECT_NAME": "STARLINK-35941", "OBJECT_ID": "2025-268AC", "EPOCH": "2025-12-10T12:00:02.998944", "MEAN_MOTION": 15.50595039, "ECCENTRICITY": 0.0001746, "INCLINATION": 43.0003, "RA_OF_ASC_NODE": 134.1721, "ARG_OF_PERICENTER": 263.981, "MEAN_ANOMALY": 327.3607, "EPHEMERIS_TYPE": 0, "CLASSIFICATION_TYPE": "U", "NORAD_CAT_ID": 66583, "ELEMENT_SET_NO": 999, "REV_AT_EPOCH": 430, "BSTAR": -0.0011988, "MEAN_MOTION_DOT": -0.00070083, "MEAN_MOTION_DDOT": 0}, "tle": {"line1": "1 66583U 25268AC  25344.50003471 -.00070083  00000+0 -11988-2 0  9997", "line2": "2 66583  43.0003 134.1721 0001746 263.9810 327.3607 15.50595039  4303"}}, "geometry": {"type": "Point", "coordinates": [86.14234128741009, -34.197928791846586]}}, {"type": "Feature", "properties": {"norad_id": 66584, "name": "STARLINK-35939", "group": "last-30-days", "lat": -33.28808070168048, "lon": 88.16401857311335, "alt_km": 417.09157878376845, "timestamp": "2025-12-10T16:57:10.416364+00:00", "meta": {"OBJECT_NAME": "STARLINK-35939", "OBJECT_ID": "2025-268AD", "EPOCH": "2025-12-10T12:00:02.998944", "MEAN_MOTION": 15.50607251, "ECCENTRICITY": 0.0001654, "INCLINATION": 43.0001, "RA_OF_ASC_NODE": 134.1682, "ARG_OF_PERICENTER": 265.1503, "MEAN_ANOMALY": 328.1022, "EPHEMERIS_TYPE": 0, "CLASSIFICATION_TYPE": "U", "NORAD_CAT_ID": 66584, "ELEMENT_SET_NO": 999, "REV_AT_EPOCH": 430, "BSTAR": -0.0014997, "MEAN_MOTION_DOT": -0.00087434, "MEAN_MOTION_DDOT": 0}, "tle": {"line1": "1 66584U 25268AD  25344.50003471 -.00087434  00000+0 -14997-2 0  9999", "line2": "2 66584  43.0001 134.1682 0001654 265.1503 328.1022 15.50607251  4309"}}, "geometry": {"type": "Point", "coordinates": [88.16401857311335, -33.28808070168048]}}, {"type": "Feature", "properties": {"norad_id": 66585, "name": "STARLINK-35963", "group": "last-30-days", "lat": -32.346297964706984, "lon": 90.14207846530905, "alt_km": 417.2059556608692, "timestamp": "2025-12-10T16:57:10.416377+00:00", "meta": {"OBJECT_NAME": "STARLINK-35963", "OBJECT_ID": "2025-268AE", "EPOCH": "2025-12-10T12:00:02.998944", "MEAN_MOTION": 15.50613431, "ECCENTRICITY": 0.0001462, "INCLINATION": 43.0002, "RA_OF_ASC_NODE": 134.1631, "ARG_OF_PERICENTER": 260.7488, "MEAN_ANOMALY": 334.4174, "EPHEMERIS_TYPE": 0, "CLASSIFICATION_TYPE": "U", "NORAD_CAT_ID": 66585, "ELEMENT_SET_NO": 999, "REV_AT_EPOCH": 430, "BSTAR": -0.0016802, "MEAN_MOTION_DOT": -0.00097811, "MEAN_MOTION_DDOT": 0}, "tle": {"line1": "1 66585U 25268AE  25344.50003471 -.00097811  00000+0 -16802-2 0  9997", "line2": "2 66585  43.0002 134.1631 0001462 260.7488 334.4174 15.50613431  4300"}}, "geometry": {"type": "Point", "coordinates": [90.14207846530905, -32.346297964706984]}}, {"type": "Feature", "properties": {"norad_id": 66586, "name": "TJS-21", "group": "last-30-days", "lat": -61.37995482075214, "lon": 95.05326087351773, "alt_km": 2176.755260791836, "timestamp": "2025-12-10T16:57:10.416390+00:00", "meta": {"OBJECT_NAME": "TJS-21", "OBJECT_ID": "2025-269A", "EPOCH": "2025-12-09T17:35:27.978144", "MEAN_MOTION": 2.00565752, "ECCENTRICITY": 0.68056573, "INCLINATION": 63.268, "RA_OF_ASC_NODE": 162.6671, "ARG_OF_PERICENTER": 269.7843, "MEAN_ANOMALY": 18.6559, "EPHEMERIS_TYPE": 0, "CLASSIFICATION_TYPE": "U", "NORAD_CAT_ID": 66586, "ELEMENT_SET_NO": 999, "REV_AT_EPOCH": 37, "BSTAR": -0.041606579, "MEAN_MOTION_DOT": 1.08e-05, "MEAN_MOTION_DDOT": 0}, "tle": {"line1": "1 66586U 25269A   25343.73296271  .00001080  00000+0 -41607-1 0  9997", "line2": "2 66586  63.2680 162.6671 6805657 269.7843  18.6559  2.00565752   379"}}, "geometry": {"type": "Point", "coordinates": [95.05326087351773, -61.37995482075214]}}, {"type": "Feature", "properties": {"norad_id": 66587, "name": "CZ-3B R/B", "group": "last-30-days", "lat": 51.16683568939724, "lon": -94.92550578091182, "alt_km": 18198.86367666061, "timestamp": "2025-12-10T16:57:10.416407+00:00", "meta": {"OBJECT_NAME": "CZ-3B R/B", "OBJECT_ID": "2025-269B", "EPOCH": "2025-12-08T20:16:41.011968", "MEAN_MOTION": 2.02868797, "ECCENTRICITY": 0.75197721, "INCLINATION": 51.3469, "RA_OF_ASC_NODE": 170.5472, "ARG_OF_PERICENTER": 228.0184, "MEAN_ANOMALY": 37.9661, "EPHEMERIS_TYPE": 0, "CLASSIFICATION_TYPE": "U", "NORAD_CAT_ID": 66587, "ELEMENT_SET_NO": 999, "REV_AT_EPOCH": 37, "BSTAR": 0.0012608329, "MEAN_MOTION_DOT": 0.00050405, "MEAN_MOTION_DDOT": 4.22103e-07}, "tle": {"line1": "1 66587U 25269B   25342.84491912  .00050405  42210-6  12608-2 0  9998", "line2": "2 66587  51.3469 170.5472 7519772 228.0184  37.9661  2.02868797   372"}}, "geometry": {"type": "Point", "coordinates": [-94.92550578091182, 51.16683568939724]}}, {"type": "Feature", "properties": {"norad_id": 66588, "name": "STARLINK-36076", "group": "last-30-days", "lat": -2.271651417895513, "lon": 27.067572352218598, "alt_km": 413.9612980564216, "timestamp": "2025-12-10T16:57:10.416422+00:00", "meta": {"OBJECT_NAME": "STARLINK-36076", "OBJECT_ID": "2025-270A", "EPOCH": "2025-12-10T12:00:02.998944", "MEAN_MOTION": 15.51044918, "ECCENTRICITY": 0.0001827, "INCLINATION": 42.9998, "RA_OF_ASC_NODE": 205.8355, "ARG_OF_PERICENTER": 240.7, "MEAN_ANOMALY": 229.1725, "EPHEMERIS_TYPE": 0, "CLASSIFICATION_TYPE": "U", "NORAD_CAT_ID": 66588, "ELEMENT_SET_NO": 999, "REV_AT_EPOCH": 404, "BSTAR": -0.013076, "MEAN_MOTION_DOT": -0.00722175, "MEAN_MOTION_DDOT": 0}, "tle": {"line1": "1 66588U 25270A   25344.50003471 -.00722175  00000+0 -13076-1 0  9990", "line2": "2 66588  42.9998 205.8355 0001827 240.7000 229.1725 15.51044918  4049"}}, "geometry": {"type": "Point", "coordinates": [27.067572352218598, -2.271651417895513]}}]}